{
  "type": "FeatureCollection",
  "features": [
    {
      "type": "Feature",
      "properties": {
        "norad_id": 22490,
        "name": "SCD 1",
        "group": "resource",
        "lat": -22.797081289578546,
        "lon": 107.96399909407909,
        "alt_km": 768.9287391973012,
        "timestamp": "2025-12-21T16:47:54.385116+00:00",
        "meta_object_name": "SCD 1",
        "meta_object_id": "1993-009B",
        "meta_epoch": "2025-12-20T20:00:20.608704",
        "meta_mean_motion": 14.46004096,
        "meta_eccentricity": 0.0042122,
        "meta_inclination": 24.9682,
        "meta_ra_of_asc_node": 228.7229,
        "meta_arg_of_pericenter": 50.6528,
        "meta_mean_anomaly": 356.9599,
        "meta_ephemeris_type": 0,
        "meta_classification_type": "U",
        "meta_norad_cat_id": 22490,
        "meta_element_set_no": 999,
        "meta_rev_at_epoch": 73527,
        "meta_bstar": 6.2642e-05,
        "meta_mean_motion_dot": 4.14e-06,
        "meta_mean_motion_ddot": 0,
        "tle_line1": "1 22490U 93009B   25354.83357186  .00000414  00000+0  62642-4 0  9990",
        "tle_line2": "2 22490  24.9682 228.7229 0042122  50.6528 356.9599 14.46004096735273"
      },
      "geometry": {
        "type": "Point",
        "coordinates": [
          107.96399909407909,
          -22.797081289578546
        ]
      }
    },
    {
      "type": "Feature",
      "properties": {
        "norad_id": 25397,
        "name": "TECHSAT 1B (GO-32)",
        "group": "resource",
        "lat": 8.833803759126504,
        "lon": -22.291054363308543,
        "alt_km": 811.2051785710992,
        "timestamp": "2025-12-21T16:47:54.385143+00:00",
        "meta_object_name": "TECHSAT 1B (GO-32)",
        "meta_object_id": "1998-043D",
        "meta_epoch": "2025-12-21T11:41:56.072256",
        "meta_mean_motion": 14.24379327,
        "meta_eccentricity": 0.0001781,
        "meta_inclination": 98.9929,
        "meta_ra_of_asc_node": 338.9018,
        "meta_arg_of_pericenter": 43.3962,
        "meta_mean_anomaly": 316.7356,
        "meta_ephemeris_type": 0,
        "meta_classification_type": "U",
        "meta_norad_cat_id": 25397,
        "meta_element_set_no": 999,
        "meta_rev_at_epoch": 42603,
        "meta_bstar": 4.1311e-05,
        "meta_mean_motion_dot": 4.9e-07,
        "meta_mean_motion_ddot": 0,
        "tle_line1": "1 25397U 98043D   25355.48745454  .00000049  00000+0  41311-4 0  9997",
        "tle_line2": "2 25397  98.9929 338.9018 0001781  43.3962 316.7356 14.24379327426038"
      },
      "geometry": {
        "type": "Point",
        "coordinates": [
          -22.291054363308543,
          8.833803759126504
        ]
      }
    },
    {
      "type": "Feature",
      "properties": {
        "norad_id": 25504,
        "name": "SCD 2",
        "group": "resource",
        "lat": -24.573648176348367,
        "lon": -14.388125973799035,
        "alt_km": 751.4998475415741,
        "timestamp": "2025-12-21T16:47:54.385157+00:00",
        "meta_object_name": "SCD 2",
        "meta_object_id": "1998-060A",
        "meta_epoch": "2025-12-21T09:13:38.675424",
        "meta_mean_motion": 14.4542769,
        "meta_eccentricity": 0.0017001,
        "meta_inclination": 24.9948,
        "meta_ra_of_asc_node": 88.591,
        "meta_arg_of_pericenter": 44.911,
        "meta_mean_anomaly": 10.3186,
        "meta_ephemeris_type": 0,
        "meta_classification_type": "U",
        "meta_norad_cat_id": 25504,
        "meta_element_set_no": 999,
        "meta_rev_at_epoch": 43457,
        "meta_bstar": 5.5616e-05,
        "meta_mean_motion_dot": 3.81e-06,
        "meta_mean_motion_ddot": 0,
        "tle_line1": "1 25504U 98060A   25355.38447541  .00000381  00000+0  55616-4 0  9993",
        "tle_line2": "2 25504  24.9948  88.5910 0017001  44.9110  10.3186 14.45427690434577"
      },
      "geometry": {
        "type": "Point",
        "coordinates": [
          -14.388125973799035,
          -24.573648176348367
        ]
      }
    },
    {
      "type": "Feature",
      "properties": {
        "norad_id": 25757,
        "name": "DLR-TUBSAT",
        "group": "resource",
        "lat": 47.54261907954187,
        "lon": -29.09448110679029,
        "alt_km": 718.2610943966438,
        "timestamp": "2025-12-21T16:47:54.385170+00:00",
        "meta_object_name": "DLR-TUBSAT",
        "meta_object_id": "1999-029B",
        "meta_epoch": "2025-12-17T13:22:10.787520",
        "meta_mean_motion": 14.52359578,
        "meta_eccentricity": 0.00141996,
        "meta_inclination": 98.6566,
        "meta_ra_of_asc_node": 336.2196,
        "meta_arg_of_pericenter": 177.8976,
        "meta_mean_anomaly": 182.2281,
        "meta_ephemeris_type": 0,
        "meta_classification_type": "U",
        "meta_norad_cat_id": 25757,
        "meta_element_set_no": 999,
        "meta_rev_at_epoch": 40688,
        "meta_bstar": 3.7650132e-05,
        "meta_mean_motion_dot": 1.05e-06,
        "meta_mean_motion_ddot": 0,
        "tle_line1": "1 25757U 99029B   25351.55706930  .00000105  00000+0  37650-4 0  9996",
        "tle_line2": "2 25757  98.6566 336.2196 0014199 177.8976 182.2281 14.52359578406886"
      },
      "geometry": {
        "type": "Point",
        "coordinates": [
          -29.09448110679029,
          47.54261907954187
        ]
      }
    },
    {
      "type": "Feature",
      "properties": {
        "norad_id": 25994,
        "name": "TERRA",
        "group": "resource",
        "lat": 26.09490335085044,
        "lon": 43.11859712051544,
        "alt_km": 687.7319361171076,
        "timestamp": "2025-12-21T16:47:54.385182+00:00",
        "meta_object_name": "TERRA",
        "meta_object_id": "1999-068A",
        "meta_epoch": "2025-12-21T10:21:38.371968",
        "meta_mean_motion": 14.60910943,
        "meta_eccentricity": 0.0003514,
        "meta_inclination": 97.9736,
        "meta_ra_of_asc_node": 46.7967,
        "meta_arg_of_pericenter": 77.1651,
        "meta_mean_anomaly": 339.4267,
        "meta_ephemeris_type": 0,
        "meta_classification_type": "U",
        "meta_norad_cat_id": 25994,
        "meta_element_set_no": 999,
        "meta_rev_at_epoch": 38365,
        "meta_bstar": 8.7729e-05,
        "meta_mean_motion_dot": 3.85e-06,
        "meta_mean_motion_ddot": 0,
        "tle_line1": "1 25994U 99068A   25355.43169412  .00000385  00000+0  87729-4 0  9993",
        "tle_line2": "2 25994  97.9736  46.7967 0003514  77.1651 339.4267 14.60910943383657"
      },
      "geometry": {
        "type": "Point",
        "coordinates": [
          43.11859712051544,
          26.09490335085044
        ]
      }
    },
    {
      "type": "Feature",
      "properties": {
        "norad_id": 27004,
        "name": "MAROC-TUBSAT",
        "group": "resource",
        "lat": -23.255416417982143,
        "lon": 168.5576080566743,
        "alt_km": 1006.4206760702855,
        "timestamp": "2025-12-21T16:47:54.385194+00:00",
        "meta_object_name": "MAROC-TUBSAT",
        "meta_object_id": "2001-056D",
        "meta_epoch": "2025-12-21T10:02:43.183104",
        "meta_mean_motion": 13.70253322,
        "meta_eccentricity": 0.0019195,
        "meta_inclination": 99.7916,
        "meta_ra_of_asc_node": 164.0156,
        "meta_arg_of_pericenter": 237.1012,
        "meta_mean_anomaly": 151.8705,
        "meta_ephemeris_type": 0,
        "meta_classification_type": "U",
        "meta_norad_cat_id": 27004,
        "meta_element_set_no": 999,
        "meta_rev_at_epoch": 20184,
        "meta_bstar": 1.912e-05,
        "meta_mean_motion_dot": -3e-07,
        "meta_mean_motion_ddot": 0,
        "tle_line1": "1 27004U 01056D   25355.41855536 -.00000030  00000+0  19120-4 0  9992",
        "tle_line2": "2 27004  99.7916 164.0156 0019195 237.1012 151.8705 13.70253322201840"
      },
      "geometry": {
        "type": "Point",
        "coordinates": [
          168.5576080566743,
          -23.255416417982143
        ]
      }
    },
    {
      "type": "Feature",
      "properties": {
        "norad_id": 27424,
        "name": "AQUA",
        "group": "resource",
        "lat": -67.24312265488642,
        "lon": -22.6371448040076,
        "alt_km": 695.5388956035149,
        "timestamp": "2025-12-21T16:47:54.385205+00:00",
        "meta_object_name": "AQUA",
        "meta_object_id": "2002-022A",
        "meta_epoch": "2025-12-20T21:44:41.124192",
        "meta_mean_motion": 14.61819722,
        "meta_eccentricity": 0.0001418,
        "meta_inclination": 98.4047,
        "meta_ra_of_asc_node": 315.9181,
        "meta_arg_of_pericenter": 110.6839,
        "meta_mean_anomaly": 325.0971,
        "meta_ephemeris_type": 0,
        "meta_classification_type": "U",
        "meta_norad_cat_id": 27424,
        "meta_element_set_no": 999,
        "meta_rev_at_epoch": 25722,
        "meta_bstar": 0.00013306,
        "meta_mean_motion_dot": 6.15e-06,
        "meta_mean_motion_ddot": 0,
        "tle_line1": "1 27424U 02022A   25354.90603153  .00000615  00000+0  13306-3 0  9998",
        "tle_line2": "2 27424  98.4047 315.9181 0001418 110.6839 325.0971 14.61819722257229"
      },
      "geometry": {
        "type": "Point",
        "coordinates": [
          -22.6371448040076,
          -67.24312265488642
        ]
      }
    }
  ]
}